TDRS 13                 
1 42915U 17047A   26194.13103388 -.00000103  00000+0  00000+0 0  9992
2 42915   3.4587   3.3585 0014726 111.3145 212.1071  1.00271484 32602
QZS-3 (MICHIBIKI-3)     
1 42917U 17048A   26194.01586318 -.00000349  00000+0  00000+0 0  9992
2 42917   0.0689 216.4532 0002478 269.8871 297.2991  1.00273123 32512
AMAZONAS 5              
1 42934U 17053A   26194.18836433 -.00000285  00000+0  00000+0 0  9990
2 42934   0.0342 324.0874 0001025 118.7841 215.0023  1.00269226 32308
ASIASAT 9               
1 42942U 17057A   26193.23072888 -.00000357  00000+0  00000+0 0  9994
2 42942   0.0162  36.7195 0002384  67.2830  31.2902  1.00270973 32119
INTELSAT 37E (IS-37E)   
1 42950U 17059A   26194.03377860 -.00000143  00000+0  00000+0 0  9995
2 42950   0.0156  71.5028 0002485  47.5543 166.0149  1.00270449 32328
BSAT-4A                 
1 42951U 17059B   26194.01248317 -.00000352  00000+0  00000+0 0  9990
2 42951   0.0352  19.9056 0003395  58.3880 326.9212  1.00272408 32054
QZS-4 (MICHIBIKI-4)     
1 42965U 17062A   26193.73476241 -.00000331  00000+0  00000+0 0  9993
2 42965  40.0933 343.1604 0747459 268.5188  82.4158  1.00290649 32051
SES-11 (ECHOSTAR 105)   
1 42967U 17063A   26194.13537329 -.00000091  00000+0  00000+0 0  9999
2 42967   0.0426 293.1541 0002647 168.1903 133.4520  1.00270963 31981
KOREASAT 5A             
1 42984U 17067A   26194.01308985 -.00000360  00000+0  00000+0 0  9992
2 42984   0.0124  24.6570 0000689  94.3636 289.7382  1.00270917 31789
ALCOMSAT 1              
1 43039U 17078A   26194.12834720 -.00000189  00000+0  00000+0 0  9998
2 43039   0.0573 266.2472 0002179 203.7978 202.3679  1.00268966 31551
SBIRS GEO-3 (USA 282)   
1 43162U 18009A   26194.17849284  .00000125  00000+0  00000+0 0  9995
2 43162   2.2029  13.2946 0001695 100.2102  82.4207  1.00271807 31109
AL YAH 3                
1 43174U 18012A   26194.12930052 -.00000159  00000+0  00000+0 0  9999
2 43174   1.6163  82.7926 0003498  29.1776 205.4803  1.00270849 31106
SES-14                  
1 43175U 18012B   26194.12384051 -.00000281  00000+0  00000+0 0  9998
2 43175   0.0122  26.7670 0000740  86.2780 175.0369  1.00270296  7282
GOES 17                 
1 43226U 18022A   26194.11557993 -.00000185  00000+0  00000+0 0  9995
2 43226   1.0012  85.2870 0000535  84.5056  73.3198  1.00271367 30689
HISPASAT 30W-6          
1 43228U 18023A   26194.19820242 -.00000218  00000+0  00000+0 0  9993
2 43228   0.0422  48.0398 0005134  42.1087 242.3072  1.00270879 30665
SUPERBIRD-B3            
1 43271U 18033A   26194.16535404 -.00000095  00000+0  00000+0 0  9995
2 43271   0.0111 355.0293 0000977 133.5906  23.9636  1.00270615 30328
HYLAS 4                 
1 43272U 18033B   26194.12661384 -.00000236  00000+0  00000+0 0  9996
2 43272   0.0147 320.2826 0000808 181.7892 161.0197  1.00271265 30324
IRNSS-1I                
1 43286U 18035A   26187.83739038  .00000079  00000+0  00000+0 0  9999
2 43286  28.7973  73.8917 0018087 180.4002  27.0525  1.00279237 30279
USA 283                 
1 43339U 18036A   26190.45282684 -.00000304  00000+0  00000+0 0  9993
2 43339   0.0041  71.7274 0000871 148.0481   4.7270  1.00270107 25510
COSMOS 2526             
1 43432U 18037A   26194.01603654 -.00000346  00000+0  00000+0 0  9994
2 43432   0.0329  84.2105 0000699 161.4338 179.0845  1.00269664 30216
APSTAR-6C               
1 43450U 18041A   26193.94592189 -.00000319  00000+0  00000+0 0  9990
2 43450   0.0224 358.2401 0000598 282.9787 124.1457  1.00269528 30060
BANGABANDHUSAT-1        
1 43463U 18044A   26194.01430318 -.00000364  00000+0  00000+0 0  9991
2 43463   0.0177  93.3051 0001639  31.6816 290.1553  1.00271150 29960
SES-12                  
1 43488U 18049A   26194.15200730 -.00000272  00000+0  00000+0 0  9999
2 43488   0.0106   5.6876 0000836 260.0512 175.0198  1.00272202 29683
FENGYUN 2H              
1 43491U 18050A   26194.07764412 -.00000132  00000+0  00000+0 0  9993
2 43491   3.0943  78.7664 0002311 133.2490 186.0612  1.00267338 29699
BEIDOU-2 IGSO-7         
1 43539U 18057A   26182.89122331 -.00000033  00000+0  00000+0 0  9998
2 43539  55.1981 162.9292 0104946 237.8611 308.6338  1.00246939 29273
TELSTAR 19V             
1 43562U 18059A   26194.22191360 -.00000282  00000+0  00000+0 0  9990
2 43562   0.0317 153.7464 0002847 338.9129 175.3313  1.00269617 29409
TELKOM 4 (MERAH PUTIH)  
1 43587U 18064A   26194.01204985 -.00000345  00000+0  00000+0 0  9998
2 43587   0.0181  78.6321 0000978  40.7215 283.8776  1.00269937 29132
TELSTAR 18V             
1 43611U 18069A   26194.01802986 -.00000295  00000+0  00000+0 0  9990
2 43611   0.0149 339.6984 0001654 132.1532 323.5372  1.00271462 28891
AZERSPACE 2 (IS-38)     
1 43632U 18074A   26194.14221394  .00000000  00000+0  00000+0 0  9994
2 43632   0.0256  41.9828 0001220  80.6995 264.6594  1.00269679 28700
HORIZONS-3E             
1 43633U 18074B   26194.09532419 -.00000033  00000+0  00000+0 0  9999
2 43633   0.0482 223.1894 0000976  65.1377 205.9637  1.00269520 28608
AEHF-4 (USA 288)        
1 43651U 18079A   26194.04844088 -.00000277  00000+0  00000+0 0  9997
2 43651   1.4390   6.1116 0058559 354.0435 240.6194  1.00277004 28556
