OBJECT_NAME,OBJECT_ID,EPOCH,MEAN_MOTION,ECCENTRICITY,INCLINATION,RA_OF_ASC_NODE,ARG_OF_PERICENTER,MEAN_ANOMALY,EPHEMERIS_TYPE,CLASSIFICATION_TYPE,NORAD_CAT_ID,ELEMENT_SET_NO,REV_AT_EPOCH,BSTAR,MEAN_MOTION_DOT,MEAN_MOTION_DDOT
TDRS 13,2017-047A,2026-07-13T03:08:41.327232,1.00271484,.0014726,3.4587,3.3585,111.3145,212.1071,0,U,42915,999,3260,0,-.103E-5,0
QZS-3 (MICHIBIKI-3),2017-048A,2026-07-13T00:22:50.578752,1.00273123,.0002478,0.0689,216.4532,269.8871,297.2991,0,U,42917,999,3251,0,-.349E-5,0
AMAZONAS 5,2017-053A,2026-07-13T04:31:14.678112,1.00269226,.0001025,0.0342,324.0874,118.7841,215.0023,0,U,42934,999,3230,0,-.285E-5,0
ASIASAT 9,2017-057A,2026-07-12T05:32:14.975232,1.00270973,.0002384,0.0162,36.7195,67.2830,31.2902,0,U,42942,999,3211,0,-.357E-5,0
INTELSAT 37E (IS-37E),2017-059A,2026-07-13T00:48:38.471040,1.00270449,.0002485,0.0156,71.5028,47.5543,166.0149,0,U,42950,999,3232,0,-.143E-5,0
BSAT-4A,2017-059B,2026-07-13T00:17:58.545888,1.00272408,.0003395,0.0352,19.9056,58.3880,326.9212,0,U,42951,999,3205,0,-.352E-5,0
QZS-4 (MICHIBIKI-4),2017-062A,2026-07-12T17:38:03.472224,1.00290649,.0747459,40.0933,343.1604,268.5188,82.4158,0,U,42965,999,3205,0,-.331E-5,0
SES-11 (ECHOSTAR 105),2017-063A,2026-07-13T03:14:56.252256,1.00270963,.0002647,0.0426,293.1541,168.1903,133.4520,0,U,42967,999,3198,0,-.91E-6,0
KOREASAT 5A,2017-067A,2026-07-13T00:18:50.963040,1.00270917,.0000689,0.0124,24.6570,94.3636,289.7382,0,U,42984,999,3178,0,-.36E-5,0
ALCOMSAT 1,2017-078A,2026-07-13T03:04:49.198080,1.00268966,.0002179,0.0573,266.2472,203.7978,202.3679,0,U,43039,999,3155,0,-.189E-5,0
SBIRS GEO-3 (USA 282),2018-009A,2026-07-13T04:17:01.781376,1.00271807,.0001695,2.2029,13.2946,100.2102,82.4207,0,U,43162,999,3110,0,.125E-5,0
AL YAH 3,2018-012A,2026-07-13T03:06:11.564928,1.00270849,.0003498,1.6163,82.7926,29.1776,205.4803,0,U,43174,999,3110,0,-.159E-5,0
SES-14,2018-012B,2026-07-13T02:58:19.820064,1.00270296,.000074,0.0122,26.7670,86.2780,175.0369,0,U,43175,999,728,0,-.281E-5,0
GOES 17,2018-022A,2026-07-13T02:46:26.105952,1.00271367,.0000535,1.0012,85.2870,84.5056,73.3198,0,U,43226,999,3068,0,-.185E-5,0
HISPASAT 30W-6,2018-023A,2026-07-13T04:45:24.689088,1.00270879,.0005134,0.0422,48.0398,42.1087,242.3072,0,U,43228,999,3066,0,-.218E-5,0
SUPERBIRD-B3,2018-033A,2026-07-13T03:58:06.589056,1.00270615,.0000977,0.0111,355.0293,133.5906,23.9636,0,U,43271,999,3032,0,-.95E-6,0
HYLAS 4,2018-033B,2026-07-13T03:02:19.435776,1.00271265,.0000808,0.0147,320.2826,181.7892,161.0197,0,U,43272,999,3032,0,-.236E-5,0
IRNSS-1I,2018-035A,2026-07-06T20:05:50.528832,1.00279237,.00180874,28.7973,73.8917,180.4002,27.0525,0,U,43286,999,3027,0,.79E-6,0
USA 283,2018-036A,2026-07-09T10:52:04.238976,1.00270107,.0000871,0.0041,71.7274,148.0481,4.7270,0,U,43339,999,2551,0,-.304E-5,0
COSMOS 2526,2018-037A,2026-07-13T00:23:05.557056,1.00269664,.0000699,0.0329,84.2105,161.4338,179.0845,0,U,43432,999,3021,0,-.346E-5,0
APSTAR-6C,2018-041A,2026-07-12T22:42:07.651296,1.00269528,.0000598,0.0224,358.2401,282.9787,124.1457,0,U,43450,999,3006,0,-.319E-5,0
BANGABANDHUSAT-1,2018-044A,2026-07-13T00:20:35.794752,1.00271150,.0001639,0.0177,93.3051,31.6816,290.1553,0,U,43463,999,2996,0,-.364E-5,0
SES-12,2018-049A,2026-07-13T03:38:53.430720,1.00272202,.0000836,0.0106,5.6876,260.0512,175.0198,0,U,43488,999,2968,0,-.272E-5,0
FENGYUN 2H,2018-050A,2026-07-13T01:51:48.451968,1.00267338,.0002311,3.0943,78.7664,133.2490,186.0612,0,U,43491,999,2969,0,-.132E-5,0
BEIDOU-2 IGSO-7,2018-057A,2026-07-01T21:23:21.693984,1.00246939,.01049468,55.1981,162.9292,237.8611,308.6338,0,U,43539,999,2927,0,-.33E-6,0
TELSTAR 19V,2018-059A,2026-07-13T05:19:33.335040,1.00269617,.0002847,0.0317,153.7464,338.9129,175.3313,0,U,43562,999,2940,0,-.282E-5,0
TELKOM 4 (MERAH PUTIH),2018-064A,2026-07-13T00:17:21.107040,1.00269937,.0000978,0.0181,78.6321,40.7215,283.8776,0,U,43587,999,2913,0,-.345E-5,0
TELSTAR 18V,2018-069A,2026-07-13T00:25:57.779904,1.00271462,.0001654,0.0149,339.6984,132.1532,323.5372,0,U,43611,999,2889,0,-.295E-5,0
AZERSPACE 2 (IS-38),2018-074A,2026-07-13T03:24:47.284416,1.00269679,.000122,0.0256,41.9828,80.6995,264.6594,0,U,43632,999,2870,0,0,0
HORIZONS-3E,2018-074B,2026-07-13T02:17:16.010016,1.00269520,.0000976,0.0482,223.1894,65.1377,205.9637,0,U,43633,999,2860,0,-.33E-6,0
AEHF-4 (USA 288),2018-079A,2026-07-13T01:09:45.292032,1.00277004,.0058559,1.4390,6.1116,354.0435,240.6194,0,U,43651,999,2855,0,-.277E-5,0
